{
  "type": "FeatureCollection",
  "features": [
    {
      "type": "Feature",
      "properties": {
        "norad_id": 28051,
        "name": "IRS-P6 (RESOURCESAT-1)",
        "group": "resource",
        "lat": 5.36772571001174,
        "lon": -138.25946650526436,
        "alt_km": 736.4750282919858,
        "timestamp": "2025-12-27T05:29:38.850618+00:00",
        "meta_object_name": "IRS-P6 (RESOURCESAT-1)",
        "meta_object_id": "2003-046A",
        "meta_epoch": "2025-12-27T00:12:00.059328",
        "meta_mean_motion": 14.3608033,
        "meta_eccentricity": 0.00650007,
        "meta_inclination": 98.2159,
        "meta_ra_of_asc_node": 40.7524,
        "meta_arg_of_pericenter": 138.1152,
        "meta_mean_anomaly": 336.144,
        "meta_ephemeris_type": 0,
        "meta_classification_type": "U",
        "meta_norad_cat_id": 28051,
        "meta_element_set_no": 999,
        "meta_rev_at_epoch": 15581,
        "meta_bstar": 1.8650483e-05,
        "meta_mean_motion_dot": 1.5e-07,
        "meta_mean_motion_ddot": 0,
        "tle_line1": "1 28051U 03046A   25361.00833402  .00000015  00000+0  18650-4 0  9995",
        "tle_line2": "2 28051  98.2159  40.7524 0065000 138.1152 336.1440 14.36080330155815"
      },
      "geometry": {
        "type": "Point",
        "coordinates": [
          -138.25946650526436,
          5.36772571001174
        ]
      }
    },
    {
      "type": "Feature",
      "properties": {
        "norad_id": 28220,
        "name": "SHIYAN-1 (SY-1)",
        "group": "resource",
        "lat": 7.6005871815471115,
        "lon": -115.31573278203865,
        "alt_km": 482.3915622514196,
        "timestamp": "2025-12-27T05:29:38.850629+00:00",
        "meta_object_name": "SHIYAN-1 (SY-1)",
        "meta_object_id": "2004-012A",
        "meta_epoch": "2025-12-26T22:27:28.893312",
        "meta_mean_motion": 15.28517423,
        "meta_eccentricity": 0.00051566,
        "meta_inclination": 97.8913,
        "meta_ra_of_asc_node": 63.3132,
        "meta_arg_of_pericenter": 265.4517,
        "meta_mean_anomaly": 94.6132,
        "meta_ephemeris_type": 0,
        "meta_classification_type": "U",
        "meta_norad_cat_id": 28220,
        "meta_element_set_no": 999,
        "meta_rev_at_epoch": 18473,
        "meta_bstar": 0.00060456466,
        "meta_mean_motion_dot": 0.00016721,
        "meta_mean_motion_ddot": 0,
        "tle_line1": "1 28220U 04012A   25360.93575108  .00016721  00000+0  60456-3 0  9995",
        "tle_line2": "2 28220  97.8913  63.3132 0005156 265.4517  94.6132 15.28517423184734"
      },
      "geometry": {
        "type": "Point",
        "coordinates": [
          -115.31573278203865,
          7.6005871815471115
        ]
      }
    },
    {
      "type": "Feature",
      "properties": {
        "norad_id": 28376,
        "name": "AURA",
        "group": "resource",
        "lat": -61.65621242275441,
        "lon": -32.73412636061819,
        "alt_km": 698.0777609733723,
        "timestamp": "2025-12-27T05:29:38.850641+00:00",
        "meta_object_name": "AURA",
        "meta_object_id": "2004-026A",
        "meta_epoch": "2025-12-26T23:12:23.024160",
        "meta_mean_motion": 14.60979857,
        "meta_eccentricity": 0.00014518,
        "meta_inclination": 98.3204,
        "meta_ra_of_asc_node": 311.2613,
        "meta_arg_of_pericenter": 90.2891,
        "meta_mean_anomaly": 269.8476,
        "meta_ephemeris_type": 0,
        "meta_classification_type": "U",
        "meta_norad_cat_id": 28376,
        "meta_element_set_no": 999,
        "meta_rev_at_epoch": 14106,
        "meta_bstar": 0.00027789887,
        "meta_mean_motion_dot": 1.314e-05,
        "meta_mean_motion_ddot": 0,
        "tle_line1": "1 28376U 04026A   25360.96693315  .00001314  00000+0  27790-3 0  9992",
        "tle_line2": "2 28376  98.3204 311.2613 0001451  90.2891 269.8476 14.60979857141061"
      },
      "geometry": {
        "type": "Point",
        "coordinates": [
          -32.73412636061819,
          -61.65621242275441
        ]
      }
    },
    {
      "type": "Feature",
      "properties": {
        "norad_id": 28649,
        "name": "IRS-P5 (CARTOSAT-1)",
        "group": "resource",
        "lat": -63.13303205324063,
        "lon": -168.17447082446776,
        "alt_km": 604.057043179796,
        "timestamp": "2025-12-27T05:29:38.850652+00:00",
        "meta_object_name": "IRS-P5 (CARTOSAT-1)",
        "meta_object_id": "2005-017A",
        "meta_epoch": "2025-12-26T20:20:45.653568",
        "meta_mean_motion": 14.90451268,
        "meta_eccentricity": 4.655e-05,
        "meta_inclination": 97.5483,
        "meta_ra_of_asc_node": 26.6348,
        "meta_arg_of_pericenter": 75.7075,
        "meta_mean_anomaly": 284.4196,
        "meta_ephemeris_type": 0,
        "meta_classification_type": "U",
        "meta_norad_cat_id": 28649,
        "meta_element_set_no": 999,
        "meta_rev_at_epoch": 11814,
        "meta_bstar": 0.00017521229,
        "meta_mean_motion_dot": 1.656e-05,
        "meta_mean_motion_ddot": 0,
        "tle_line1": "1 28649U 05017A   25360.84775062  .00001656  00000+0  17521-3 0  9993",
        "tle_line2": "2 28649  97.5483  26.6348 0000465  75.7075 284.4196 14.90451268118141"
      },
      "geometry": {
        "type": "Point",
        "coordinates": [
          -168.17447082446776,
          -63.13303205324063
        ]
      }
    },
    {
      "type": "Feature",
      "properties": {
        "norad_id": 28893,
        "name": "SINAH 1",
        "group": "resource",
        "lat": -58.95264736573312,
        "lon": 143.7914023788427,
        "alt_km": 697.5060123747326,
        "timestamp": "2025-12-27T05:29:38.850663+00:00",
        "meta_object_name": "SINAH 1",
        "meta_object_id": "2005-043D",
        "meta_epoch": "2025-12-26T21:33:58.889664",
        "meta_mean_motion": 14.63977617,
        "meta_eccentricity": 0.00157345,
        "meta_inclination": 98.261,
        "meta_ra_of_asc_node": 129.4944,
        "meta_arg_of_pericenter": 95.7533,
        "meta_mean_anomaly": 264.5463,
        "meta_ephemeris_type": 0,
        "meta_classification_type": "U",
        "meta_norad_cat_id": 28893,
        "meta_element_set_no": 999,
        "meta_rev_at_epoch": 7531,
        "meta_bstar": 0.00011646405,
        "meta_mean_motion_dot": 5.62e-06,
        "meta_mean_motion_ddot": 0,
        "tle_line1": "1 28893U 05043D   25360.89859826  .00000562  00000+0  11646-3 0  9996",
        "tle_line2": "2 28893  98.2610 129.4944 0015734  95.7533 264.5463 14.63977617 75310"
      },
      "geometry": {
        "type": "Point",
        "coordinates": [
          143.7914023788427,
          -58.95264736573312
        ]
      }
    },
    {
      "type": "Feature",
      "properties": {
        "norad_id": 29079,
        "name": "EROS B",
        "group": "resource",
        "lat": 76.09009204758429,
        "lon": -30.06896051947953,
        "alt_km": 345.391998342071,
        "timestamp": "2025-12-27T05:29:38.850674+00:00",
        "meta_object_name": "EROS B",
        "meta_object_id": "2006-014A",
        "meta_epoch": "2025-12-26T22:57:23.125824",
        "meta_mean_motion": 15.7311304,
        "meta_eccentricity": 0.00048882,
        "meta_inclination": 97.3448,
        "meta_ra_of_asc_node": 118.2547,
        "meta_arg_of_pericenter": 311.9545,
        "meta_mean_anomaly": 48.1302,
        "meta_ephemeris_type": 0,
        "meta_classification_type": "U",
        "meta_norad_cat_id": 29079,
        "meta_element_set_no": 999,
        "meta_rev_at_epoch": 9303,
        "meta_bstar": 0.0016177864,
        "meta_mean_motion_dot": 0.00226724,
        "meta_mean_motion_ddot": 0,
        "tle_line1": "1 29079U 06014A   25360.95651766  .00226724  00000+0  16178-2 0  9996",
        "tle_line2": "2 29079  97.3448 118.2547 0004888 311.9545  48.1302 15.73113040 93036"
      },
      "geometry": {
        "type": "Point",
        "coordinates": [
          -30.06896051947953,
          76.09009204758429
        ]
      }
    },
    {
      "type": "Feature",
      "properties": {
        "norad_id": 29228,
        "name": "RESURS-DK 1",
        "group": "resource",
        "lat": -56.24242238005491,
        "lon": -82.4537620647737,
        "alt_km": 531.0166785511683,
        "timestamp": "2025-12-27T05:29:38.850684+00:00",
        "meta_object_name": "RESURS-DK 1",
        "meta_object_id": "2006-021A",
        "meta_epoch": "2025-12-26T22:04:34.255488",
        "meta_mean_motion": 15.12241224,
        "meta_eccentricity": 0.00069617,
        "meta_inclination": 69.9337,
        "meta_ra_of_asc_node": 65.1898,
        "meta_arg_of_pericenter": 246.3572,
        "meta_mean_anomaly": 113.6863,
        "meta_ephemeris_type": 0,
        "meta_classification_type": "U",
        "meta_norad_cat_id": 29228,
        "meta_element_set_no": 999,
        "meta_rev_at_epoch": 7652,
        "meta_bstar": 0.00019994941,
        "meta_mean_motion_dot": 3.359e-05,
        "meta_mean_motion_ddot": 0,
        "tle_line1": "1 29228U 06021A   25360.91984092  .00003359  00000+0  19995-3 0  9995",
        "tle_line2": "2 29228  69.9337  65.1898 0006961 246.3572 113.6863 15.12241224 76522"
      },
      "geometry": {
        "type": "Point",
        "coordinates": [
          -82.4537620647737,
          -56.24242238005491
        ]
      }
    }
  ]
}